{
  "type": "FeatureCollection",
  "features": [
    {
      "type": "Feature",
      "properties": {
        "norad_id": 39773,
        "name": "EUTELSAT 3B",
        "group": "eutelsat",
        "lat": -0.03370985322664757,
        "lon": -171.07615293328377,
        "alt_km": 35770.921455535325,
        "timestamp": "2025-12-11T07:02:23.405216+00:00",
        "meta_object_name": "EUTELSAT 3B",
        "meta_object_id": "2014-030A",
        "meta_epoch": "2025-12-10T21:35:38.732640",
        "meta_mean_motion": 1.00271979,
        "meta_eccentricity": 0.00046495,
        "meta_inclination": 0.0619,
        "meta_ra_of_asc_node": 345.3939,
        "meta_arg_of_pericenter": 243.1432,
        "meta_mean_anomaly": 178.3505,
        "meta_ephemeris_type": 0,
        "meta_classification_type": "U",
        "meta_norad_cat_id": 39773,
        "meta_element_set_no": 999,
        "meta_rev_at_epoch": 4217,
        "meta_bstar": 0,
        "meta_mean_motion_dot": 2.5e-07,
        "meta_mean_motion_ddot": 0,
        "tle_line1": "1 39773U 14030A   25344.89975385  .00000025  00000+0  00000+0 0  9994",
        "tle_line2": "2 39773   0.0619 345.3939 0004649 243.1432 178.3505  1.00271979 42174"
      },
      "geometry": {
        "type": "Point",
        "coordinates": [
          -171.07615293328377,
          -0.03370985322664757
        ]
      }
    },
    {
      "type": "Feature",
      "properties": {
        "norad_id": 40425,
        "name": "EUTELSAT 115 WEST B",
        "group": "eutelsat",
        "lat": -0.011116705964039205,
        "lon": 70.92204827640109,
        "alt_km": 35788.36194977633,
        "timestamp": "2025-12-11T07:02:23.405228+00:00",
        "meta_object_name": "EUTELSAT 115 WEST B",
        "meta_object_id": "2015-010B",
        "meta_epoch": "2025-12-10T16:25:11.235648",
        "meta_mean_motion": 1.00263828,
        "meta_eccentricity": 6.192e-05,
        "meta_inclination": 0.0066,
        "meta_ra_of_asc_node": 149.6545,
        "meta_arg_of_pericenter": 12.7699,
        "meta_mean_anomaly": 48.6247,
        "meta_ephemeris_type": 0,
        "meta_classification_type": "U",
        "meta_norad_cat_id": 40425,
        "meta_element_set_no": 999,
        "meta_rev_at_epoch": 3950,
        "meta_bstar": 0,
        "meta_mean_motion_dot": -1.9e-07,
        "meta_mean_motion_ddot": 0,
        "tle_line1": "1 40425U 15010B   25344.68415782 -.00000019  00000+0  00000+0 0  9990",
        "tle_line2": "2 40425   0.0066 149.6545 0000619  12.7699  48.6247  1.00263828 39501"
      },
      "geometry": {
        "type": "Point",
        "coordinates": [
          70.92204827640109,
          -0.011116705964039205
        ]
      }
    },
    {
      "type": "Feature",
      "properties": {
        "norad_id": 40875,
        "name": "EUTELSAT 8 WEST B",
        "group": "eutelsat",
        "lat": 0.0022418634434132963,
        "lon": 177.81735274959019,
        "alt_km": 35784.00599902925,
        "timestamp": "2025-12-11T07:02:23.405240+00:00",
        "meta_object_name": "EUTELSAT 8 WEST B",
        "meta_object_id": "2015-039B",
        "meta_epoch": "2025-12-10T21:43:38.678592",
        "meta_mean_motion": 1.00271569,
        "meta_eccentricity": 0.00041859,
        "meta_inclination": 0.0649,
        "meta_ra_of_asc_node": 4.0639,
        "meta_arg_of_pericenter": 256.869,
        "meta_mean_anomaly": 136.8675,
        "meta_ephemeris_type": 0,
        "meta_classification_type": "U",
        "meta_norad_cat_id": 40875,
        "meta_element_set_no": 999,
        "meta_rev_at_epoch": 3776,
        "meta_bstar": 0,
        "meta_mean_motion_dot": -6e-07,
        "meta_mean_motion_ddot": 0,
        "tle_line1": "1 40875U 15039B   25344.90530878 -.00000060  00000+0  00000+0 0  9995",
        "tle_line2": "2 40875   0.0649   4.0639 0004185 256.8690 136.8675  1.00271569 37761"
      },
      "geometry": {
        "type": "Point",
        "coordinates": [
          177.81735274959019,
          0.0022418634434132963
        ]
      }
    },
    {
      "type": "Feature",
      "properties": {
        "norad_id": 41310,
        "name": "EUTELSAT 9B",
        "group": "eutelsat",
        "lat": 0.017595663902627397,
        "lon": -165.18265472466987,
        "alt_km": 35779.206240788655,
        "timestamp": "2025-12-11T07:02:23.405252+00:00",
        "meta_object_name": "EUTELSAT 9B",
        "meta_object_id": "2016-005A",
        "meta_epoch": "2025-12-10T21:35:38.732640",
        "meta_mean_motion": 1.00272893,
        "meta_eccentricity": 0.00048106,
        "meta_inclination": 0.0406,
        "meta_ra_of_asc_node": 59.4246,
        "meta_arg_of_pericenter": 206.755,
        "meta_mean_anomaly": 146.6182,
        "meta_ephemeris_type": 0,
        "meta_classification_type": "U",
        "meta_norad_cat_id": 41310,
        "meta_element_set_no": 999,
        "meta_rev_at_epoch": 3622,
        "meta_bstar": 0,
        "meta_mean_motion_dot": 6.7e-07,
        "meta_mean_motion_ddot": 0,
        "tle_line1": "1 41310U 16005A   25344.89975385  .00000067  00000+0  00000+0 0  9994",
        "tle_line2": "2 41310   0.0406  59.4246 0004810 206.7550 146.6182  1.00272893 36222"
      },
      "geometry": {
        "type": "Point",
        "coordinates": [
          -165.18265472466987,
          0.017595663902627397
        ]
      }
    },
    {
      "type": "Feature",
      "properties": {
        "norad_id": 41382,
        "name": "EUTELSAT 65 WEST A",
        "group": "eutelsat",
        "lat": 0.0588691656087681,
        "lon": 120.63263374066361,
        "alt_km": 35795.03106031727,
        "timestamp": "2025-12-11T07:02:23.405264+00:00",
        "meta_object_name": "EUTELSAT 65 WEST A",
        "meta_object_id": "2016-014A",
        "meta_epoch": "2025-12-10T20:04:46.008768",
        "meta_mean_motion": 1.00272418,
        "meta_eccentricity": 0.0002594,
        "meta_inclination": 0.0505,
        "meta_ra_of_asc_node": 8.8869,
        "meta_arg_of_pericenter": 257.6289,
        "meta_mean_anomaly": 49.2805,
        "meta_ephemeris_type": 0,
        "meta_classification_type": "U",
        "meta_norad_cat_id": 41382,
        "meta_element_set_no": 999,
        "meta_rev_at_epoch": 3564,
        "meta_bstar": 0,
        "meta_mean_motion_dot": -2.71e-06,
        "meta_mean_motion_ddot": 0,
        "tle_line1": "1 41382U 16014A   25344.83664362 -.00000271  00000+0  00000+0 0  9995",
        "tle_line2": "2 41382   0.0505   8.8869 0002594 257.6289  49.2805  1.00272418 35649"
      },
      "geometry": {
        "type": "Point",
        "coordinates": [
          120.63263374066361,
          0.0588691656087681
        ]
      }
    },
    {
      "type": "Feature",
      "properties": {
        "norad_id": 41589,
        "name": "EUTELSAT 117 WEST B",
        "group": "eutelsat",
        "lat": -0.007113589390112925,
        "lon": 68.86237967849173,
        "alt_km": 35784.4514773567,
        "timestamp": "2025-12-11T07:02:23.405276+00:00",
        "meta_object_name": "EUTELSAT 117 WEST B",
        "meta_object_id": "2016-038B",
        "meta_epoch": "2025-12-10T14:41:49.473888",
        "meta_mean_motion": 1.00271682,
        "meta_eccentricity": 4.035e-05,
        "meta_inclination": 0.0104,
        "meta_ra_of_asc_node": 147.6779,
        "meta_arg_of_pericenter": 297.9326,
        "meta_mean_anomaly": 97.4445,
        "meta_ephemeris_type": 0,
        "meta_classification_type": "U",
        "meta_norad_cat_id": 41589,
        "meta_element_set_no": 999,
        "meta_rev_at_epoch": 3477,
        "meta_bstar": 0,
        "meta_mean_motion_dot": -7e-08,
        "meta_mean_motion_ddot": 0,
        "tle_line1": "1 41589U 16038B   25344.61237817 -.00000007  00000+0  00000+0 0  9994",
        "tle_line2": "2 41589   0.0104 147.6779 0000403 297.9326  97.4445  1.00271682 34771"
      },
      "geometry": {
        "type": "Point",
        "coordinates": [
          68.86237967849173,
          -0.007113589390112925
        ]
      }
    },
    {
      "type": "Feature",
      "properties": {
        "norad_id": 42741,
        "name": "EUTELSAT 172B",
        "group": "eutelsat",
        "lat": -0.019604450267573258,
        "lon": -2.1528574013590007,
        "alt_km": 35786.92128179549,
        "timestamp": "2025-12-11T07:02:23.405294+00:00",
        "meta_object_name": "EUTELSAT 172B",
        "meta_object_id": "2017-029B",
        "meta_epoch": "2025-12-10T19:29:49.356384",
        "meta_mean_motion": 1.00269514,
        "meta_eccentricity": 1.051e-05,
        "meta_inclination": 0.0415,
        "meta_ra_of_asc_node": 150.1561,
        "meta_arg_of_pericenter": 87.9316,
        "meta_mean_anomaly": 306.1501,
        "meta_ephemeris_type": 0,
        "meta_classification_type": "U",
        "meta_norad_cat_id": 42741,
        "meta_element_set_no": 999,
        "meta_rev_at_epoch": 3184,
        "meta_bstar": 0,
        "meta_mean_motion_dot": -1e-08,
        "meta_mean_motion_ddot": 0,
        "tle_line1": "1 42741U 17029B   25344.81237681 -.00000001  00000+0  00000+0 0  9991",
        "tle_line2": "2 42741   0.0415 150.1561 0000105  87.9316 306.1501  1.00269514 31849"
      },
      "geometry": {
        "type": "Point",
        "coordinates": [
          -2.1528574013590007,
          -0.019604450267573258
        ]
      }
    }
  ]
}